XRISM                   
1 57800U 23137A   24251.57958045  .00014547  00000+0  10603-2 0  9995
2 57800  31.0021 207.6885 0009765 301.9152  58.0534 15.02551777 55086
